[{"OBJECT_NAME":"STARLINK-3090","OBJECT_ID":"2021-082C","EPOCH":"2026-03-09T23:20:36.632544","MEAN_MOTION":14.98331604,"ECCENTRICITY":0.0002969,"INCLINATION":69.9979,"RA_OF_ASC_NODE":293.6149,"ARG_OF_PERICENTER":269.9157,"MEAN_ANOMALY":90.1661,"EPHEMERIS_TYPE":0,"CLASSIFICATION_TYPE":"U","NORAD_CAT_ID":49132,"ELEMENT_SET_NO":999,"REV_AT_EPOCH":24602,"BSTAR":-3.614228e-5,"MEAN_MOTION_DOT":-5.24e-6,"MEAN_MOTION_DDOT":0},{"OBJECT_NAME":"FENGYUN 1C DEB","OBJECT_ID":"1999-025CSU","EPOCH":"2026-03-07T21:14:13.818624","MEAN_MOTION":14.60913824,"ECCENTRICITY":0.01709309,"INCLINATION":99.182,"RA_OF_ASC_NODE":104.0364,"ARG_OF_PERICENTER":168.74,"MEAN_ANOMALY":191.77,"EPHEMERIS_TYPE":0,"CLASSIFICATION_TYPE":"U","NORAD_CAT_ID":32150,"ELEMENT_SET_NO":999,"REV_AT_EPOCH":98949,"BSTAR":0.00024028489,"MEAN_MOTION_DOT":1.378e-5,"MEAN_MOTION_DDOT":0}]
